PROGRESS-MS 23          
1 56740U 23071A   23295.52871732  .00014113  00000+0  25884-3 0  9990
2 56740  51.6411  57.7775 0000590 100.4004 259.7051 15.49550530421534
SHENZHOU-16 (SZ-16)     
1 56761U 23077A   23294.89415242  .00019410  00000+0  22134-3 0  9998
2 56761  41.4708 104.4334 0002363 167.9781 192.1115 15.61762734141641
ISS DEB                 
1 57212U 98067VP  23295.55867127  .00040077  00000+0  51998-3 0  9991
2 57212  51.6372  54.2380 0002798 194.0200 166.0716 15.58428948 18524
1998-067VQ              
1 57312U 98067VQ  23295.58220321  .00102686  00000+0  97022-3 0  9997
2 57312  51.6366  52.1447 0007215 304.0765  55.9546 15.66165216 16853
1998-067VR              
1 57313U 98067VR  23295.62591226  .00082340  00000+0  85247-3 0  9998
2 57313  51.6363  52.4375 0005471 312.9375  47.1160 15.63975065 16865
1998-067VS              
1 57314U 98067VS  23295.55729205  .00472198  00000+0  18555-2 0  9992
2 57314  51.6269  48.1618 0011769 324.3526  35.6690 15.85034289 16908
1998-067VT              
1 57315U 98067VT  23295.57299741  .00100868  00000+0  94308-3 0  9995
2 57315  51.6351  52.0769 0007358 301.8014  58.2264 15.66433267 16864
MOONLIGHTER             
1 57316U 98067VU  23293.83165875  .00050016  00000+0  53968-3 0  9999
2 57316  51.6365  60.7015 0004220 250.9747 109.0791 15.63136438 16588
1998-067VV              
1 57317U 98067VV  23295.40780663  .00224180  00000+0  14706-2 0  9994
2 57317  51.6384  50.9880 0009570 309.4716  50.5436 15.74474349 16854
MAYA-5                  
1 57419U 98067VW  23295.41143490  .00153382  00000+0  12001-2 0  9990
2 57419  51.6324  52.4839 0006305 292.3926  67.6403 15.70585959 14844
MAYA-6                  
1 57420U 98067VX  23295.61005654  .00165545  00000+0  13204-2 0  9993
2 57420  51.6313  51.5556 0006231 290.4608  69.5721 15.70083247 14874
CYGNUS NG-19            
1 57488U 23110A   23295.52871732  .00014113  00000+0  25884-3 0  9994
2 57488  51.6411  57.7775 0000590 100.4004 259.7051 15.49550530421534
PROGRESS-MS 24          
1 57691U 23125A   23295.52871732  .00014113  00000+0  25884-3 0  9996
2 57691  51.6411  57.7775 0000590 100.4004 259.7051 15.49550530421530
CREW DRAGON 7           
1 57697U 23128A   23295.52871732  .00014113  00000+0  25884-3 0  9995
2 57697  51.6411  57.7775 0000590 100.4004 259.7051 15.49550530421536
