[
  {
    "OBJECT_NAME": "PROGRESS-MS 23",
    "OBJECT_ID": "2023-071A",
    "EPOCH": "2023-10-22T12:41:21.176448",
    "MEAN_MOTION": 15.4955053,
    "ECCENTRICITY": 5.9e-5,
    "INCLINATION": 51.6411,
    "RA_OF_ASC_NODE": 57.7775,
    "ARG_OF_PERICENTER": 100.4004,
    "MEAN_ANOMALY": 259.7051,
    "EPHEMERIS_TYPE": 0,
    "CLASSIFICATION_TYPE": "U",
    "NORAD_CAT_ID": 56740,
    "ELEMENT_SET_NO": 999,
    "REV_AT_EPOCH": 42153,
    "BSTAR": 0.00025884,
    "MEAN_MOTION_DOT": 0.00014113,
    "MEAN_MOTION_DDOT": 0
  },
  {
    "OBJECT_NAME": "SHENZHOU-16 (SZ-16)",
    "OBJECT_ID": "2023-077A",
    "EPOCH": "2023-10-21T21:27:34.769088",
    "MEAN_MOTION": 15.61762734,
    "ECCENTRICITY": 0.0002363,
    "INCLINATION": 41.4708,
    "RA_OF_ASC_NODE": 104.4334,
    "ARG_OF_PERICENTER": 167.9781,
    "MEAN_ANOMALY": 192.1115,
    "EPHEMERIS_TYPE": 0,
    "CLASSIFICATION_TYPE": "U",
    "NORAD_CAT_ID": 56761,
    "ELEMENT_SET_NO": 999,
    "REV_AT_EPOCH": 14164,
    "BSTAR": 0.00022134,
    "MEAN_MOTION_DOT": 0.0001941,
    "MEAN_MOTION_DDOT": 0
  },
  {
    "OBJECT_NAME": "ISS DEB",
    "OBJECT_ID": "1998-067VP",
    "EPOCH": "2023-10-22T13:24:29.197728",
    "MEAN_MOTION": 15.58428948,
    "ECCENTRICITY": 0.0002798,
    "INCLINATION": 51.6372,
    "RA_OF_ASC_NODE": 54.238,
    "ARG_OF_PERICENTER": 194.02,
    "MEAN_ANOMALY": 166.0716,
    "EPHEMERIS_TYPE": 0,
    "CLASSIFICATION_TYPE": "U",
    "NORAD_CAT_ID": 57212,
    "ELEMENT_SET_NO": 999,
    "REV_AT_EPOCH": 1852,
    "BSTAR": 0.00051998,
    "MEAN_MOTION_DOT": 0.00040077,
    "MEAN_MOTION_DDOT": 0
  },
  {
    "OBJECT_NAME": "1998-067VQ",
    "OBJECT_ID": "1998-067VQ",
    "EPOCH": "2023-10-22T13:58:22.357344",
    "MEAN_MOTION": 15.66165216,
    "ECCENTRICITY": 0.0007215,
    "INCLINATION": 51.6366,
    "RA_OF_ASC_NODE": 52.1447,
    "ARG_OF_PERICENTER": 304.0765,
    "MEAN_ANOMALY": 55.9546,
    "EPHEMERIS_TYPE": 0,
    "CLASSIFICATION_TYPE": "U",
    "NORAD_CAT_ID": 57312,
    "ELEMENT_SET_NO": 999,
    "REV_AT_EPOCH": 1685,
    "BSTAR": 0.00097022,
    "MEAN_MOTION_DOT": 0.00102686,
    "MEAN_MOTION_DDOT": 0
  },
  {
    "OBJECT_NAME": "1998-067VR",
    "OBJECT_ID": "1998-067VR",
    "EPOCH": "2023-10-22T15:01:18.819264",
    "MEAN_MOTION": 15.63975065,
    "ECCENTRICITY": 0.0005471,
    "INCLINATION": 51.6363,
    "RA_OF_ASC_NODE": 52.4375,
    "ARG_OF_PERICENTER": 312.9375,
    "MEAN_ANOMALY": 47.116,
    "EPHEMERIS_TYPE": 0,
    "CLASSIFICATION_TYPE": "U",
    "NORAD_CAT_ID": 57313,
    "ELEMENT_SET_NO": 999,
    "REV_AT_EPOCH": 1686,
    "BSTAR": 0.00085247,
    "MEAN_MOTION_DOT": 0.0008234,
    "MEAN_MOTION_DDOT": 0
  },
  {
    "OBJECT_NAME": "1998-067VS",
    "OBJECT_ID": "1998-067VS",
    "EPOCH": "2023-10-22T13:22:30.033120",
    "MEAN_MOTION": 15.85034289,
    "ECCENTRICITY": 0.0011769,
    "INCLINATION": 51.6269,
    "RA_OF_ASC_NODE": 48.1618,
    "ARG_OF_PERICENTER": 324.3526,
    "MEAN_ANOMALY": 35.669,
    "EPHEMERIS_TYPE": 0,
    "CLASSIFICATION_TYPE": "U",
    "NORAD_CAT_ID": 57314,
    "ELEMENT_SET_NO": 999,
    "REV_AT_EPOCH": 1690,
    "BSTAR": 0.0018555,
    "MEAN_MOTION_DOT": 0.00472198,
    "MEAN_MOTION_DDOT": 0
  },
  {
    "OBJECT_NAME": "1998-067VT",
    "OBJECT_ID": "1998-067VT",
    "EPOCH": "2023-10-22T13:45:06.976224",
    "MEAN_MOTION": 15.66433267,
    "ECCENTRICITY": 0.0007358,
    "INCLINATION": 51.6351,
    "RA_OF_ASC_NODE": 52.0769,
    "ARG_OF_PERICENTER": 301.8014,
    "MEAN_ANOMALY": 58.2264,
    "EPHEMERIS_TYPE": 0,
    "CLASSIFICATION_TYPE": "U",
    "NORAD_CAT_ID": 57315,
    "ELEMENT_SET_NO": 999,
    "REV_AT_EPOCH": 1686,
    "BSTAR": 0.00094308,
    "MEAN_MOTION_DOT": 0.00100868,
    "MEAN_MOTION_DDOT": 0
  },
  {
    "OBJECT_NAME": "MOONLIGHTER",
    "OBJECT_ID": "1998-067VU",
    "EPOCH": "2023-10-20T19:57:35.316000",
    "MEAN_MOTION": 15.63136438,
    "ECCENTRICITY": 0.000422,
    "INCLINATION": 51.6365,
    "RA_OF_ASC_NODE": 60.7015,
    "ARG_OF_PERICENTER": 250.9747,
    "MEAN_ANOMALY": 109.0791,
    "EPHEMERIS_TYPE": 0,
    "CLASSIFICATION_TYPE": "U",
    "NORAD_CAT_ID": 57316,
    "ELEMENT_SET_NO": 999,
    "REV_AT_EPOCH": 1658,
    "BSTAR": 0.00053968,
    "MEAN_MOTION_DOT": 0.00050016,
    "MEAN_MOTION_DDOT": 0
  },
  {
    "OBJECT_NAME": "1998-067VV",
    "OBJECT_ID": "1998-067VV",
    "EPOCH": "2023-10-22T09:47:14.492832",
    "MEAN_MOTION": 15.74474349,
    "ECCENTRICITY": 0.000957,
    "INCLINATION": 51.6384,
    "RA_OF_ASC_NODE": 50.988,
    "ARG_OF_PERICENTER": 309.4716,
    "MEAN_ANOMALY": 50.5436,
    "EPHEMERIS_TYPE": 0,
    "CLASSIFICATION_TYPE": "U",
    "NORAD_CAT_ID": 57317,
    "ELEMENT_SET_NO": 999,
    "REV_AT_EPOCH": 1685,
    "BSTAR": 0.0014706,
    "MEAN_MOTION_DOT": 0.0022418,
    "MEAN_MOTION_DDOT": 0
  },
  {
    "OBJECT_NAME": "MAYA-5",
    "OBJECT_ID": "1998-067VW",
    "EPOCH": "2023-10-22T09:52:27.975360",
    "MEAN_MOTION": 15.70585959,
    "ECCENTRICITY": 0.0006305,
    "INCLINATION": 51.6324,
    "RA_OF_ASC_NODE": 52.4839,
    "ARG_OF_PERICENTER": 292.3926,
    "MEAN_ANOMALY": 67.6403,
    "EPHEMERIS_TYPE": 0,
    "CLASSIFICATION_TYPE": "U",
    "NORAD_CAT_ID": 57419,
    "ELEMENT_SET_NO": 999,
    "REV_AT_EPOCH": 1484,
    "BSTAR": 0.0012001,
    "MEAN_MOTION_DOT": 0.00153382,
    "MEAN_MOTION_DDOT": 0
  },
  {
    "OBJECT_NAME": "MAYA-6",
    "OBJECT_ID": "1998-067VX",
    "EPOCH": "2023-10-22T14:38:28.885056",
    "MEAN_MOTION": 15.70083247,
    "ECCENTRICITY": 0.0006231,
    "INCLINATION": 51.6313,
    "RA_OF_ASC_NODE": 51.5556,
    "ARG_OF_PERICENTER": 290.4608,
    "MEAN_ANOMALY": 69.5721,
    "EPHEMERIS_TYPE": 0,
    "CLASSIFICATION_TYPE": "U",
    "NORAD_CAT_ID": 57420,
    "ELEMENT_SET_NO": 999,
    "REV_AT_EPOCH": 1487,
    "BSTAR": 0.0013204,
    "MEAN_MOTION_DOT": 0.00165545,
    "MEAN_MOTION_DDOT": 0
  },
  {
    "OBJECT_NAME": "CYGNUS NG-19",
    "OBJECT_ID": "2023-110A",
    "EPOCH": "2023-10-22T12:41:21.176448",
    "MEAN_MOTION": 15.4955053,
    "ECCENTRICITY": 5.9e-5,
    "INCLINATION": 51.6411,
    "RA_OF_ASC_NODE": 57.7775,
    "ARG_OF_PERICENTER": 100.4004,
    "MEAN_ANOMALY": 259.7051,
    "EPHEMERIS_TYPE": 0,
    "CLASSIFICATION_TYPE": "U",
    "NORAD_CAT_ID": 57488,
    "ELEMENT_SET_NO": 999,
    "REV_AT_EPOCH": 42153,
    "BSTAR": 0.00025884,
    "MEAN_MOTION_DOT": 0.00014113,
    "MEAN_MOTION_DDOT": 0
  },
  {
    "OBJECT_NAME": "PROGRESS-MS 24",
    "OBJECT_ID": "2023-125A",
    "EPOCH": "2023-10-22T12:41:21.176448",
    "MEAN_MOTION": 15.4955053,
    "ECCENTRICITY": 5.9e-5,
    "INCLINATION": 51.6411,
    "RA_OF_ASC_NODE": 57.7775,
    "ARG_OF_PERICENTER": 100.4004,
    "MEAN_ANOMALY": 259.7051,
    "EPHEMERIS_TYPE": 0,
    "CLASSIFICATION_TYPE": "U",
    "NORAD_CAT_ID": 57691,
    "ELEMENT_SET_NO": 999,
    "REV_AT_EPOCH": 42153,
    "BSTAR": 0.00025884,
    "MEAN_MOTION_DOT": 0.00014113,
    "MEAN_MOTION_DDOT": 0
  },
  {
    "OBJECT_NAME": "CREW DRAGON 7",
    "OBJECT_ID": "2023-128A",
    "EPOCH": "2023-10-22T12:41:21.176448",
    "MEAN_MOTION": 15.4955053,
    "ECCENTRICITY": 5.9e-5,
    "INCLINATION": 51.6411,
    "RA_OF_ASC_NODE": 57.7775,
    "ARG_OF_PERICENTER": 100.4004,
    "MEAN_ANOMALY": 259.7051,
    "EPHEMERIS_TYPE": 0,
    "CLASSIFICATION_TYPE": "U",
    "NORAD_CAT_ID": 57697,
    "ELEMENT_SET_NO": 999,
    "REV_AT_EPOCH": 42153,
    "BSTAR": 0.00025884,
    "MEAN_MOTION_DOT": 0.00014113,
    "MEAN_MOTION_DDOT": 0
  }
]
